H1 CPF  1  DGF 2022 07 11 11  6921 larets     NONE      
H2   304206 5557    27944 2022 07 11 00 00 00 2022 07 18 00 00 00    30 1 1  0 0 0
H5  0.0650
H9
10 0 59775   3600.000000  0      -4418590.712       -522305.922      -5483101.506
10 0 59775   3630.000000  0      -4254284.203       -441993.335      -5618732.827
10 0 59775   3660.000000  0      -4085325.903       -361962.949      -5748641.493
10 0 59775   3690.000000  0      -3911889.318       -282315.763      -5872696.947
10 0 59775   3720.000000  0      -3734152.799       -203151.563      -5990774.646
10 0 59775   3750.000000  0      -3552299.350       -124568.812      -6102756.172
10 0 59775   3780.000000  0      -3366516.435        -46664.521      -6208529.347
10 0 59775   3810.000000  0      -3176995.777         30465.857      -6307988.327
10 0 59775   3840.000000  0      -2983933.163        106728.545      -6401033.702
10 0 59775   3870.000000  0      -2787528.230        182031.546      -6487572.591
10 0 59775   3900.000000  0      -2587984.260        256284.756      -6567518.717
10 0 59775   3930.000000  0      -2385507.959        329400.057      -6640792.492
10 0 59775   3960.000000  0      -2180309.247        401291.426      -6707321.075
10 0 59775   3990.000000  0      -1972601.039        471875.027      -6767038.445
10 0 59775   4020.000000  0      -1762599.023        541069.306      -6819885.450
10 0 59775   4050.000000  0      -1550521.440        608795.083      -6865809.862
10 0 59775   4080.000000  0      -1336588.856        674975.641      -6904766.419
10 0 59775   4110.000000  0      -1121023.937        739536.808      -6936716.863
10 0 59775   4140.000000  0       -904051.217        802407.037      -6961629.964
10 0 59775   4170.000000  0       -685896.871        863517.483      -6979481.552
10 0 59775   4200.000000  0       -466788.482        922802.073      -6990254.526
10 0 59775   4230.000000  0       -246954.816        980197.576      -6993938.875
10 0 59775   4260.000000  0        -26625.584       1035643.666      -6990531.681
10 0 59775   4290.000000  0        193968.790       1089082.982      -6980037.128
10 0 59775   4320.000000  0        414597.410       1140461.187      -6962466.500
10 0 59775   4350.000000  0        635029.145       1189727.022      -6937838.165
10 0 59775   4380.000000  0        855032.877       1236832.361      -6906177.559
10 0 59775   4410.000000  0       1074377.736       1281732.250      -6867517.153
10 0 59775   4440.000000  0       1292833.333       1324384.955      -6821896.417
10 0 59775   4470.000000  0       1510169.999       1364751.993      -6769361.787
10 0 59775   4500.000000  0       1726159.023       1402798.171      -6709966.618
10 0 59775   4530.000000  0       1940572.885       1438491.611      -6643771.140
10 0 59775   4560.000000  0       2153185.503       1471803.780      -6570842.395
10 0 59775   4590.000000  0       2363772.464       1502709.510      -6491254.173
10 0 59775   4620.000000  0       2572111.262       1531187.012      -6405086.936
10 0 59775   4650.000000  0       2777981.520       1557217.888      -6312427.742
10 0 59775   4680.000000  0       2981165.224       1580787.143      -6213370.165
10 0 59775   4710.000000  0       3181446.950       1601883.185      -6108014.207
10 0 59775   4740.000000  0       3378614.090       1620497.828      -5996466.208
10 0 59775   4770.000000  0       3572457.078       1636626.287      -5878838.740
10 0 59775   4800.000000  0       3762769.615       1650267.171      -5755250.511
10 0 59775   4830.000000  0       3949348.887       1661422.469      -5625826.242
10 0 59775   4860.000000  0       4131995.781       1670097.536      -5490696.560
10 0 59775   4890.000000  0       4310515.108       1676301.074      -5349997.870
10 0 59775   4920.000000  0       4484715.811       1680045.103      -5203872.221
10 0 59775   4950.000000  0       4654411.172       1681344.938      -5052467.170
10 0 59775   4980.000000  0       4819419.016       1680219.151      -4895935.639
10 0 59775   5010.000000  0       4979561.909       1676689.537      -4734435.768
10 0 59775   5040.000000  0       5134667.355       1670781.070      -4568130.763
10 0 59775   5070.000000  0       5284567.983       1662521.861      -4397188.735
10 0 59775   5100.000000  0       5429101.739       1651943.107      -4221782.538
10 0 59775   5130.000000  0       5568112.060       1639079.039      -4042089.599
10 0 59775   5160.000000  0       5701448.050       1623966.863      -3858291.742
10 0 59775   5190.000000  0       5828964.654       1606646.704      -3670575.016
10 0 59775   5220.000000  0       5950522.820       1587161.534      -3479129.509
10 0 59775   5250.000000  0       6065989.664       1565557.112      -3284149.158
10 0 59775   5280.000000  0       6175238.616       1541881.908      -3085831.559
10 0 59775   5310.000000  0       6278149.574       1516187.031      -2884377.764
10 0 59775   5340.000000  0       6374609.042       1488526.149      -2679992.084
10 0 59775   5370.000000  0       6464510.261       1458955.410      -2472881.874
10 0 59775   5400.000000  0       6547753.334       1427533.351      -2263257.333
10 0 59775   5430.000000  0       6624245.345       1394320.819      -2051331.279
10 0 59775   5460.000000  0       6693900.471       1359380.872      -1837318.941
10 0 59775   5490.000000  0       6756640.080       1322778.687      -1621437.737
10 0 59775   5520.000000  0       6812392.829       1284581.464      -1403907.048
10 0 59775   5550.000000  0       6861094.750       1244858.323      -1184948.000
10 0 59775   5580.000000  0       6902689.333       1203680.206       -964783.227
10 0 59775   5610.000000  0       6937127.589       1161119.769       -743636.646
10 0 59775   5640.000000  0       6964368.113       1117251.278       -521733.222
10 0 59775   5670.000000  0       6984377.129       1072150.501       -299298.737
10 0 59775   5700.000000  0       6997128.539       1025894.599        -76559.563
10 0 59775   5730.000000  0       7002603.960        978562.017        146257.572
10 0 59775   5760.000000  0       7000792.751        930232.366        368925.821
10 0 59775   5790.000000  0       6991692.035        880986.313        591218.450
10 0 59775   5820.000000  0       6975306.708        830905.459        812909.077
10 0 59775   5850.000000  0       6951649.444        780072.223       1033771.906
10 0 59775   5880.000000  0       6920740.683        728569.726       1253581.961
10 0 59775   5910.000000  0       6882608.614        676481.666       1472115.329
10 0 59775   5940.000000  0       6837289.151        623892.205       1689149.388
10 0 59775   5970.000000  0       6784825.888        570885.846       1904463.043
10 0 59775   6000.000000  0       6725270.055        517547.310       2117836.948
10 0 59775   6030.000000  0       6658680.467        463961.422       2329053.737
10 0 59775   6060.000000  0       6585123.461        410212.987       2537898.239
10 0 59775   6090.000000  0       6504672.832        356386.675       2744157.709
10 0 59775   6120.000000  0       6417409.755        302566.895       2947622.046
10 0 59775   6150.000000  0       6323422.698        248837.679       3148084.013
10 0 59775   6180.000000  0       6222807.320        195282.560       3345339.454
10 0 59775   6210.000000  0       6115666.363        141984.461       3539187.496
10 0 59775   6240.000000  0       6002109.540         89025.576       3729430.747
10 0 59775   6270.000000  0       5882253.424         36487.265       3915875.499
10 0 59775   6300.000000  0       5756221.331        -15550.057       4098331.925
10 0 59775   6330.000000  0       5624143.179        -67007.040       4276614.276
10 0 59775   6360.000000  0       5486155.356       -117805.503       4450541.073
10 0 59775   6390.000000  0       5342400.566       -167868.544       4619935.289
10 0 59775   6420.000000  0       5193027.675       -217120.648       4784624.529
10 0 59775   6450.000000  0       5038191.554       -265487.788       4944441.202
10 0 59775   6480.000000  0       4878052.905       -312897.525       5099222.691
10 0 59775   6510.000000  0       4712778.086       -359279.111       5248811.514
10 0 59775   6540.000000  0       4542538.934       -404563.578       5393055.475
10 0 59775   6570.000000  0       4367512.582       -448683.833       5531807.812
10 0 59775   6600.000000  0       4187881.275       -491574.744       5664927.348
10 0 59775   6630.000000  0       4003832.174       -533173.232       5792278.631
10 0 59775   6660.000000  0       3815557.158       -573418.347       5913732.067
10 0 59775   6690.000000  0       3623252.617       -612251.356       6029164.048
10 0 59775   6720.000000  0       3427119.246       -649615.822       6138457.073
10 0 59775   6750.000000  0       3227361.832       -685457.673       6241499.860
10 0 59775   6780.000000  0       3024189.040       -719725.276       6338187.458
10 0 59775   6810.000000  0       2817813.195       -752369.506       6428421.345
10 0 59775   6840.000000  0       2608450.063       -783343.807       6512109.531
10 0 59775   6870.000000  0       2396318.618       -812604.256       6589166.654
10 0 59775   6900.000000  0       2181640.815       -840109.618       6659514.056
10 0 59775   6930.000000  0       1964641.358       -865821.403       6723079.868
10 0 59775   6960.000000  0       1745547.454       -889703.917       6779799.078
10 0 59775   6990.000000  0       1524588.586       -911724.304       6829613.590
10 0 59775   7020.000000  0       1301996.261       -931852.591       6872472.289
10 0 59775   7050.000000  0       1078003.776       -950061.724       6908331.079
10 0 59775   7080.000000  0        852845.977       -966327.604       6937152.936
10 0 59775   7110.000000  0        626759.006       -980629.115       6958907.942
10 0 59775   7140.000000  0        399980.064       -992948.157       6973573.317
10 0 59775   7170.000000  0        172747.154      -1003269.660       6981133.443
99
